[{"OBJECT_NAME":"STARLINK-3896","OBJECT_ID":"2022-049F","EPOCH":"2026-03-09T05:37:40.826784","MEAN_MOTION":15.08830227,"ECCENTRICITY":0.00013403,"INCLINATION":53.2162,"RA_OF_ASC_NODE":71.1643,"ARG_OF_PERICENTER":88.6159,"MEAN_ANOMALY":271.4987,"EPHEMERIS_TYPE":0,"CLASSIFICATION_TYPE":"U","NORAD_CAT_ID":52456,"ELEMENT_SET_NO":999,"REV_AT_EPOCH":21204,"BSTAR":-0.00016661055,"MEAN_MOTION_DOT":-2.938e-5,"MEAN_MOTION_DDOT":0},{"OBJECT_NAME":"POSAT-2","OBJECT_ID":"2025-009DR","EPOCH":"2026-03-09T23:15:20.314368","MEAN_MOTION":15.10404492,"ECCENTRICITY":0.00077103,"INCLINATION":97.4906,"RA_OF_ASC_NODE":146.0095,"ARG_OF_PERICENTER":126.4226,"MEAN_ANOMALY":233.7715,"EPHEMERIS_TYPE":0,"CLASSIFICATION_TYPE":"U","NORAD_CAT_ID":63488,"ELEMENT_SET_NO":999,"REV_AT_EPOCH":5165,"BSTAR":0.0010942248,"MEAN_MOTION_DOT":0.00017957,"MEAN_MOTION_DDOT":0}]
